[{"OBJECT_NAME":"ONEWEB-0058","OBJECT_ID":"2020-008AG","EPOCH":"2026-01-10T21:56:30.788736","MEAN_MOTION":13.10371929,"ECCENTRICITY":0.0001519,"INCLINATION":87.8773,"RA_OF_ASC_NODE":67.6343,"ARG_OF_PERICENTER":97.9344,"MEAN_ANOMALY":262.1955,"EPHEMERIS_TYPE":0,"CLASSIFICATION_TYPE":"U","NORAD_CAT_ID":45161,"ELEMENT_SET_NO":999,"REV_AT_EPOCH":28782,"BSTAR":0.0016816731,"MEAN_MOTION_DOT":6.0e-6,"MEAN_MOTION_DDOT":0},{"OBJECT_NAME":"ONEWEB-0059","OBJECT_ID":"2020-008AH","EPOCH":"2026-01-10T16:21:39.712896","MEAN_MOTION":13.10360946,"ECCENTRICITY":0.00016954,"INCLINATION":87.8779,"RA_OF_ASC_NODE":67.6812,"ARG_OF_PERICENTER":95.3641,"MEAN_ANOMALY":264.768,"EPHEMERIS_TYPE":0,"CLASSIFICATION_TYPE":"U","NORAD_CAT_ID":45162,"ELEMENT_SET_NO":999,"REV_AT_EPOCH":28769,"BSTAR":0.0077702633,"MEAN_MOTION_DOT":2.725e-5,"MEAN_MOTION_DDOT":0},{"OBJECT_NAME":"ONEWEB-0062","OBJECT_ID":"2020-008AJ","EPOCH":"2026-01-10T20:38:35.565504","MEAN_MOTION":13.10370983,"ECCENTRICITY":0.00013299,"INCLINATION":87.8781,"RA_OF_ASC_NODE":67.6231,"ARG_OF_PERICENTER":99.8885,"MEAN_ANOMALY":260.2393,"EPHEMERIS_TYPE":0,"CLASSIFICATION_TYPE":"U","NORAD_CAT_ID":45163,"ELEMENT_SET_NO":999,"REV_AT_EPOCH":28758,"BSTAR":-0.0010632724,"MEAN_MOTION_DOT":-3.58e-6,"MEAN_MOTION_DDOT":0},{"OBJECT_NAME":"ONEWEB-0065","OBJECT_ID":"2020-008AK","EPOCH":"2026-01-10T21:22:37.229088","MEAN_MOTION":13.10375233,"ECCENTRICITY":0.00021423,"INCLINATION":87.8782,"RA_OF_ASC_NODE":67.6308,"ARG_OF_PERICENTER":104.6778,"MEAN_ANOMALY":255.4587,"EPHEMERIS_TYPE":0,"CLASSIFICATION_TYPE":"U","NORAD_CAT_ID":45164,"ELEMENT_SET_NO":999,"REV_AT_EPOCH":28728,"BSTAR":1.6517104e-5,"MEAN_MOTION_DOT":1.8e-7,"MEAN_MOTION_DDOT":0},{"OBJECT_NAME":"ONEWEB-0066","OBJECT_ID":"2020-020A","EPOCH":"2026-01-10T19:44:46.756896","MEAN_MOTION":13.11407817,"ECCENTRICITY":0.00019104,"INCLINATION":87.8831,"RA_OF_ASC_NODE":52.3932,"ARG_OF_PERICENTER":90.5063,"MEAN_ANOMALY":269.6284,"EPHEMERIS_TYPE":0,"CLASSIFICATION_TYPE":"U","NORAD_CAT_ID":45424,"ELEMENT_SET_NO":999,"REV_AT_EPOCH":28205,"BSTAR":-0.00095835785,"MEAN_MOTION_DOT":-3.27e-6,"MEAN_MOTION_DDOT":0},{"OBJECT_NAME":"ONEWEB-0067","OBJECT_ID":"2020-020B","EPOCH":"2026-01-10T20:38:41.928864","MEAN_MOTION":13.11417448,"ECCENTRICITY":0.00019935,"INCLINATION":87.8841,"RA_OF_ASC_NODE":52.2905,"ARG_OF_PERICENTER":94.8436,"MEAN_ANOMALY":265.2919,"EPHEMERIS_TYPE":0,"CLASSIFICATION_TYPE":"U","NORAD_CAT_ID":45425,"ELEMENT_SET_NO":999,"REV_AT_EPOCH":28211,"BSTAR":0.0012032714,"MEAN_MOTION_DOT":4.39e-6,"MEAN_MOTION_DDOT":0},{"OBJECT_NAME":"ONEWEB-0080","OBJECT_ID":"2020-020C","EPOCH":"2026-01-10T20:51:56.109024","MEAN_MOTION":13.11415665,"ECCENTRICITY":0.00015503,"INCLINATION":87.8827,"RA_OF_ASC_NODE":52.3834,"ARG_OF_PERICENTER":89.8195,"MEAN_ANOMALY":270.3111,"EPHEMERIS_TYPE":0,"CLASSIFICATION_TYPE":"U","NORAD_CAT_ID":45426,"ELEMENT_SET_NO":999,"REV_AT_EPOCH":28208,"BSTAR":0.0014526743,"MEAN_MOTION_DOT":5.28e-6,"MEAN_MOTION_DDOT":0},{"OBJECT_NAME":"ONEWEB-0090","OBJECT_ID":"2020-020D","EPOCH":"2026-01-10T12:10:51.103488","MEAN_MOTION":13.11414419,"ECCENTRICITY":0.00017333,"INCLINATION":87.8826,"RA_OF_ASC_NODE":52.4577,"ARG_OF_PERICENTER":97.4592,"MEAN_ANOMALY":262.6733,"EPHEMERIS_TYPE":0,"CLASSIFICATION_TYPE":"U","NORAD_CAT_ID":45427,"ELEMENT_SET_NO":999,"REV_AT_EPOCH":28200,"BSTAR":-0.0006293395,"MEAN_MOTION_DOT":-2.1e-6,"MEAN_MOTION_DDOT":0},{"OBJECT_NAME":"ONEWEB-0061","OBJECT_ID":"2020-020E","EPOCH":"2026-01-10T20:16:18.259392","MEAN_MOTION":13.11418324,"ECCENTRICITY":0.00017841,"INCLINATION":87.8838,"RA_OF_ASC_NODE":52.373,"ARG_OF_PERICENTER":96.0551,"MEAN_ANOMALY":264.078,"EPHEMERIS_TYPE":0,"CLASSIFICATION_TYPE":"U","NORAD_CAT_ID":45428,"ELEMENT_SET_NO":999,"REV_AT_EPOCH":28200,"BSTAR":-0.00057469026,"MEAN_MOTION_DOT":-1.91e-6,"MEAN_MOTION_DDOT":0},{"OBJECT_NAME":"ONEWEB-0081","OBJECT_ID":"2020-020F","EPOCH":"2026-01-10T19:49:37.913664","MEAN_MOTION":13.11414802,"ECCENTRICITY":0.00019315,"INCLINATION":87.8834,"RA_OF_ASC_NODE":52.392,"ARG_OF_PERICENTER":91.8705,"MEAN_ANOMALY":268.2644,"EPHEMERIS_TYPE":0,"CLASSIFICATION_TYPE":"U","NORAD_CAT_ID":45429,"ELEMENT_SET_NO":999,"REV_AT_EPOCH":28211,"BSTAR":-0.001529592,"MEAN_MOTION_DOT":-5.29e-6,"MEAN_MOTION_DDOT":0},{"OBJECT_NAME":"ONEWEB-0069","OBJECT_ID":"2020-020G","EPOCH":"2026-01-10T19:33:46.062144","MEAN_MOTION":13.11415906,"ECCENTRICITY":0.0001829,"INCLINATION":87.8831,"RA_OF_ASC_NODE":52.3904,"ARG_OF_PERICENTER":95.4905,"MEAN_ANOMALY":264.6432,"EPHEMERIS_TYPE":0,"CLASSIFICATION_TYPE":"U","NORAD_CAT_ID":45430,"ELEMENT_SET_NO":999,"REV_AT_EPOCH":28204,"BSTAR":-0.00062718617,"MEAN_MOTION_DOT":-2.1e-6,"MEAN_MOTION_DDOT":0},{"OBJECT_NAME":"ONEWEB-0031","OBJECT_ID":"2020-020H","EPOCH":"2026-01-10T20:43:22.485216","MEAN_MOTION":13.11417768,"ECCENTRICITY":0.00015829,"INCLINATION":87.8825,"RA_OF_ASC_NODE":52.4026,"ARG_OF_PERICENTER":98.2158,"MEAN_ANOMALY":261.915,"EPHEMERIS_TYPE":0,"CLASSIFICATION_TYPE":"U","NORAD_CAT_ID":45431,"ELEMENT_SET_NO":999,"REV_AT_EPOCH":28203,"BSTAR":0.0014355051,"MEAN_MOTION_DOT":5.21e-6,"MEAN_MOTION_DDOT":0},{"OBJECT_NAME":"ONEWEB-0027","OBJECT_ID":"2020-020J","EPOCH":"2026-01-10T19:32:32.378496","MEAN_MOTION":13.17648569,"ECCENTRICITY":0.00015654,"INCLINATION":87.9095,"RA_OF_ASC_NODE":37.1217,"ARG_OF_PERICENTER":105.6573,"MEAN_ANOMALY":254.4732,"EPHEMERIS_TYPE":0,"CLASSIFICATION_TYPE":"U","NORAD_CAT_ID":45432,"ELEMENT_SET_NO":999,"REV_AT_EPOCH":28563,"BSTAR":-0.00028906403,"MEAN_MOTION_DOT":-9.9e-7,"MEAN_MOTION_DDOT":0},{"OBJECT_NAME":"ONEWEB-0064","OBJECT_ID":"2020-020K","EPOCH":"2026-01-10T20:40:55.946496","MEAN_MOTION":13.1141867,"ECCENTRICITY":0.00016395,"INCLINATION":87.8826,"RA_OF_ASC_NODE":52.3928,"ARG_OF_PERICENTER":100.538,"MEAN_ANOMALY":259.5933,"EPHEMERIS_TYPE":0,"CLASSIFICATION_TYPE":"U","NORAD_CAT_ID":45433,"ELEMENT_SET_NO":999,"REV_AT_EPOCH":28206,"BSTAR":0.0016614974,"MEAN_MOTION_DOT":6.02e-6,"MEAN_MOTION_DDOT":0},{"OBJECT_NAME":"ONEWEB-0018","OBJECT_ID":"2020-020L","EPOCH":"2026-01-10T19:37:26.358816","MEAN_MOTION":13.11415174,"ECCENTRICITY":0.00017309,"INCLINATION":87.8833,"RA_OF_ASC_NODE":52.3939,"ARG_OF_PERICENTER":92.115,"MEAN_ANOMALY":268.0176,"EPHEMERIS_TYPE":0,"CLASSIFICATION_TYPE":"U","NORAD_CAT_ID":45434,"ELEMENT_SET_NO":999,"REV_AT_EPOCH":28200,"BSTAR":-0.00083210527,"MEAN_MOTION_DOT":-2.82e-6,"MEAN_MOTION_DDOT":0},{"OBJECT_NAME":"ONEWEB-0083","OBJECT_ID":"2020-020M","EPOCH":"2026-01-10T19:24:01.807200","MEAN_MOTION":13.11414441,"ECCENTRICITY":0.00017185,"INCLINATION":87.883,"RA_OF_ASC_NODE":52.3842,"ARG_OF_PERICENTER":96.5633,"MEAN_ANOMALY":263.5691,"EPHEMERIS_TYPE":0,"CLASSIFICATION_TYPE":"U","NORAD_CAT_ID":45435,"ELEMENT_SET_NO":999,"REV_AT_EPOCH":28204,"BSTAR":0.00029336141,"MEAN_MOTION_DOT":1.17e-6,"MEAN_MOTION_DDOT":0},{"OBJECT_NAME":"ONEWEB-0095","OBJECT_ID":"2020-020N","EPOCH":"2026-01-10T19:10:47.334144","MEAN_MOTION":13.11416473,"ECCENTRICITY":0.0002173,"INCLINATION":87.8829,"RA_OF_ASC_NODE":52.3962,"ARG_OF_PERICENTER":116.811,"MEAN_ANOMALY":243.3241,"EPHEMERIS_TYPE":0,"CLASSIFICATION_TYPE":"U","NORAD_CAT_ID":45436,"ELEMENT_SET_NO":999,"REV_AT_EPOCH":28204,"BSTAR":0.0011572611,"MEAN_MOTION_DOT":4.23e-6,"MEAN_MOTION_DDOT":0}]
