ONEWEB-0058             
1 45161U 20008AG  26010.91424524  .00000600  00000+0  16817-2 0  9997
2 45161  87.8773  67.6343 0001519  97.9344 262.1955 13.10371929287823
ONEWEB-0059             
1 45162U 20008AH  26010.68170964  .00002725  00000+0  77703-2 0  9999
2 45162  87.8779  67.6812 0001695  95.3641 264.7680 13.10360946287693
ONEWEB-0062             
1 45163U 20008AJ  26010.86013386 -.00000358  00000+0 -10633-2 0  9995
2 45163  87.8781  67.6231 0001329  99.8885 260.2393 13.10370983287587
ONEWEB-0065             
1 45164U 20008AK  26010.89070867  .00000018  00000+0  16517-4 0  9996
2 45164  87.8782  67.6308 0002142 104.6778 255.4587 13.10375233287285
ONEWEB-0066             
1 45424U 20020A   26010.82276339 -.00000327  00000+0 -95836-3 0  9999
2 45424  87.8831  52.3932 0001910  90.5063 269.6284 13.11407817282051
ONEWEB-0067             
1 45425U 20020B   26010.86020751  .00000439  00000+0  12033-2 0  9998
2 45425  87.8841  52.2905 0001993  94.8436 265.2919 13.11417448282119
ONEWEB-0080             
1 45426U 20020C   26010.86939941  .00000528  00000+0  14527-2 0  9998
2 45426  87.8827  52.3834 0001550  89.8195 270.3111 13.11415665282087
ONEWEB-0090             
1 45427U 20020D   26010.50753592 -.00000210  00000+0 -62934-3 0  9992
2 45427  87.8826  52.4577 0001733  97.4592 262.6733 13.11414419282003
ONEWEB-0061             
1 45428U 20020E   26010.84465578 -.00000191  00000+0 -57469-3 0  9999
2 45428  87.8838  52.3730 0001784  96.0551 264.0780 13.11418324282000
ONEWEB-0081             
1 45429U 20020F   26010.82613326 -.00000529  00000+0 -15296-2 0  9990
2 45429  87.8834  52.3920 0001931  91.8705 268.2644 13.11414802282110
ONEWEB-0069             
1 45430U 20020G   26010.81511646 -.00000210  00000+0 -62719-3 0  9993
2 45430  87.8831  52.3904 0001829  95.4905 264.6432 13.11415906282042
ONEWEB-0031             
1 45431U 20020H   26010.86345469  .00000521  00000+0  14355-2 0  9992
2 45431  87.8825  52.4026 0001582  98.2158 261.9150 13.11417768282033
ONEWEB-0027             
1 45432U 20020J   26010.81426364 -.00000099  00000+0 -28906-3 0  9992
2 45432  87.9095  37.1217 0001565 105.6573 254.4732 13.17648569285634
ONEWEB-0064             
1 45433U 20020K   26010.86175864  .00000602  00000+0  16615-2 0  9995
2 45433  87.8826  52.3928 0001639 100.5380 259.5933 13.11418670282061
ONEWEB-0018             
1 45434U 20020L   26010.81766619 -.00000282  00000+0 -83211-3 0  9998
2 45434  87.8833  52.3939 0001730  92.1150 268.0176 13.11415174282009
ONEWEB-0083             
1 45435U 20020M   26010.80835425  .00000117  00000+0  29336-3 0  9993
2 45435  87.8830  52.3842 0001718  96.5633 263.5691 13.11414441282042
ONEWEB-0095             
1 45436U 20020N   26010.79915896  .00000423  00000+0  11573-2 0  9996
2 45436  87.8829  52.3962 0002173 116.8110 243.3241 13.11416473282040
